[{"OBJECT_NAME":"STARLINK-36908","OBJECT_ID":"2026-037P","EPOCH":"2026-03-16T13:50:51.834912","MEAN_MOTION":15.82073432,"ECCENTRICITY":0.0001018,"INCLINATION":42.9982,"RA_OF_ASC_NODE":156.229,"ARG_OF_PERICENTER":283.1919,"MEAN_ANOMALY":76.8839,"EPHEMERIS_TYPE":0,"CLASSIFICATION_TYPE":"U","NORAD_CAT_ID":67945,"ELEMENT_SET_NO":999,"REV_AT_EPOCH":434,"BSTAR":0.00089929,"MEAN_MOTION_DOT":0.00193636,"MEAN_MOTION_DDOT":0},{"OBJECT_NAME":"STARLINK-36909","OBJECT_ID":"2026-037Q","EPOCH":"2026-03-16T13:49:46.557984","MEAN_MOTION":15.82045305,"ECCENTRICITY":0.0001805,"INCLINATION":42.998,"RA_OF_ASC_NODE":156.2229,"ARG_OF_PERICENTER":317.6666,"MEAN_ANOMALY":42.4066,"EPHEMERIS_TYPE":0,"CLASSIFICATION_TYPE":"U","NORAD_CAT_ID":67946,"ELEMENT_SET_NO":999,"REV_AT_EPOCH":434,"BSTAR":0.00044118,"MEAN_MOTION_DOT":0.00093502,"MEAN_MOTION_DDOT":0},{"OBJECT_NAME":"STARLINK-36920","OBJECT_ID":"2026-037R","EPOCH":"2026-03-16T06:14:09.096864","MEAN_MOTION":15.82114717,"ECCENTRICITY":0.00034527,"INCLINATION":42.9982,"RA_OF_ASC_NODE":158.1513,"ARG_OF_PERICENTER":338.1333,"MEAN_ANOMALY":21.939,"EPHEMERIS_TYPE":0,"CLASSIFICATION_TYPE":"U","NORAD_CAT_ID":67947,"ELEMENT_SET_NO":999,"REV_AT_EPOCH":429,"BSTAR":0.0021242401,"MEAN_MOTION_DOT":0.0047435,"MEAN_MOTION_DDOT":0},{"OBJECT_NAME":"STARLINK-36873","OBJECT_ID":"2026-037S","EPOCH":"2026-03-16T06:13:09.960384","MEAN_MOTION":15.81483093,"ECCENTRICITY":0.00023758,"INCLINATION":42.9977,"RA_OF_ASC_NODE":158.1448,"ARG_OF_PERICENTER":249.7909,"MEAN_ANOMALY":110.2708,"EPHEMERIS_TYPE":0,"CLASSIFICATION_TYPE":"U","NORAD_CAT_ID":67948,"ELEMENT_SET_NO":999,"REV_AT_EPOCH":429,"BSTAR":-0.0025927857,"MEAN_MOTION_DOT":-0.00503362,"MEAN_MOTION_DDOT":0},{"OBJECT_NAME":"STARLINK-36863","OBJECT_ID":"2026-037T","EPOCH":"2026-03-16T13:46:32.918304","MEAN_MOTION":15.82071332,"ECCENTRICITY":0.0001483,"INCLINATION":42.9983,"RA_OF_ASC_NODE":156.2045,"ARG_OF_PERICENTER":305.0323,"MEAN_ANOMALY":55.0409,"EPHEMERIS_TYPE":0,"CLASSIFICATION_TYPE":"U","NORAD_CAT_ID":67949,"ELEMENT_SET_NO":999,"REV_AT_EPOCH":434,"BSTAR":0.0010232,"MEAN_MOTION_DOT":0.00221074,"MEAN_MOTION_DDOT":0},{"OBJECT_NAME":"STARLINK-36887","OBJECT_ID":"2026-037U","EPOCH":"2026-03-16T14:00:45.082368","MEAN_MOTION":15.70645046,"ECCENTRICITY":0.0002579,"INCLINATION":42.9994,"RA_OF_ASC_NODE":156.2838,"ARG_OF_PERICENTER":293.8186,"MEAN_ANOMALY":66.2411,"EPHEMERIS_TYPE":0,"CLASSIFICATION_TYPE":"U","NORAD_CAT_ID":67950,"ELEMENT_SET_NO":999,"REV_AT_EPOCH":434,"BSTAR":-0.0058907,"MEAN_MOTION_DOT":-0.00691113,"MEAN_MOTION_DDOT":0},{"OBJECT_NAME":"STARLINK-36897","OBJECT_ID":"2026-037V","EPOCH":"2026-03-16T13:44:23.371008","MEAN_MOTION":15.82076089,"ECCENTRICITY":0.0001501,"INCLINATION":42.9988,"RA_OF_ASC_NODE":156.1923,"ARG_OF_PERICENTER":263.5944,"MEAN_ANOMALY":96.4757,"EPHEMERIS_TYPE":0,"CLASSIFICATION_TYPE":"U","NORAD_CAT_ID":67951,"ELEMENT_SET_NO":999,"REV_AT_EPOCH":434,"BSTAR":0.0010245,"MEAN_MOTION_DOT":0.00221409,"MEAN_MOTION_DDOT":0},{"OBJECT_NAME":"STARLINK-36381","OBJECT_ID":"2026-037W","EPOCH":"2026-03-16T13:42:14.443200","MEAN_MOTION":15.81938385,"ECCENTRICITY":0.0001021,"INCLINATION":42.9982,"RA_OF_ASC_NODE":156.1801,"ARG_OF_PERICENTER":306.5215,"MEAN_ANOMALY":53.5562,"EPHEMERIS_TYPE":0,"CLASSIFICATION_TYPE":"U","NORAD_CAT_ID":67952,"ELEMENT_SET_NO":999,"REV_AT_EPOCH":434,"BSTAR":-0.00012748,"MEAN_MOTION_DOT":-0.00027192,"MEAN_MOTION_DDOT":0},{"OBJECT_NAME":"STARLINK-36824","OBJECT_ID":"2026-037X","EPOCH":"2026-03-16T20:00:01.999008","MEAN_MOTION":15.71193412,"ECCENTRICITY":0.0001653,"INCLINATION":42.9998,"RA_OF_ASC_NODE":154.7104,"ARG_OF_PERICENTER":278.073,"MEAN_ANOMALY":83.1574,"EPHEMERIS_TYPE":0,"CLASSIFICATION_TYPE":"U","NORAD_CAT_ID":67953,"ELEMENT_SET_NO":999,"REV_AT_EPOCH":434,"BSTAR":-0.016963,"MEAN_MOTION_DOT":-0.01954911,"MEAN_MOTION_DDOT":0},{"OBJECT_NAME":"STARLINK-36869","OBJECT_ID":"2026-037Y","EPOCH":"2026-03-16T12:20:29.167008","MEAN_MOTION":15.72823525,"ECCENTRICITY":0.0002276,"INCLINATION":42.999,"RA_OF_ASC_NODE":156.6173,"ARG_OF_PERICENTER":264.1488,"MEAN_ANOMALY":95.9121,"EPHEMERIS_TYPE":0,"CLASSIFICATION_TYPE":"U","NORAD_CAT_ID":67954,"ELEMENT_SET_NO":999,"REV_AT_EPOCH":433,"BSTAR":-0.0052415,"MEAN_MOTION_DOT":-0.00675995,"MEAN_MOTION_DDOT":0},{"OBJECT_NAME":"STARLINK-36872","OBJECT_ID":"2026-037Z","EPOCH":"2026-03-16T13:38:59.717472","MEAN_MOTION":15.82063634,"ECCENTRICITY":9.77e-5,"INCLINATION":42.9984,"RA_OF_ASC_NODE":156.1603,"ARG_OF_PERICENTER":245.7109,"MEAN_ANOMALY":114.3661,"EPHEMERIS_TYPE":0,"CLASSIFICATION_TYPE":"U","NORAD_CAT_ID":67955,"ELEMENT_SET_NO":999,"REV_AT_EPOCH":434,"BSTAR":0.0007163,"MEAN_MOTION_DOT":0.00153331,"MEAN_MOTION_DDOT":0},{"OBJECT_NAME":"STARLINK-36918","OBJECT_ID":"2026-037AA","EPOCH":"2026-03-16T13:37:54.393888","MEAN_MOTION":15.82097144,"ECCENTRICITY":0.0002266,"INCLINATION":42.9987,"RA_OF_ASC_NODE":156.1542,"ARG_OF_PERICENTER":256.0433,"MEAN_ANOMALY":104.0187,"EPHEMERIS_TYPE":0,"CLASSIFICATION_TYPE":"U","NORAD_CAT_ID":67956,"ELEMENT_SET_NO":999,"REV_AT_EPOCH":434,"BSTAR":0.00065764,"MEAN_MOTION_DOT":0.00140757,"MEAN_MOTION_DDOT":0},{"OBJECT_NAME":"STARLINK-36829","OBJECT_ID":"2026-037AB","EPOCH":"2026-03-16T20:00:01.999008","MEAN_MOTION":15.77636126,"ECCENTRICITY":0.0001416,"INCLINATION":42.9995,"RA_OF_ASC_NODE":154.5714,"ARG_OF_PERICENTER":279.8754,"MEAN_ANOMALY":136.4506,"EPHEMERIS_TYPE":0,"CLASSIFICATION_TYPE":"U","NORAD_CAT_ID":67957,"ELEMENT_SET_NO":999,"REV_AT_EPOCH":434,"BSTAR":-0.012871,"MEAN_MOTION_DOT":-0.01927374,"MEAN_MOTION_DDOT":0},{"OBJECT_NAME":"STARLINK-36799","OBJECT_ID":"2026-037AC","EPOCH":"2026-03-16T13:36:50.254848","MEAN_MOTION":15.8206036,"ECCENTRICITY":9.67e-5,"INCLINATION":42.9985,"RA_OF_ASC_NODE":156.1484,"ARG_OF_PERICENTER":247.1124,"MEAN_ANOMALY":112.9646,"EPHEMERIS_TYPE":0,"CLASSIFICATION_TYPE":"U","NORAD_CAT_ID":67958,"ELEMENT_SET_NO":999,"REV_AT_EPOCH":434,"BSTAR":0.00070019,"MEAN_MOTION_DOT":0.00149787,"MEAN_MOTION_DDOT":0},{"OBJECT_NAME":"STARLINK-36834","OBJECT_ID":"2026-037AD","EPOCH":"2026-03-15T22:25:30.351648","MEAN_MOTION":15.82401295,"ECCENTRICITY":0.00023475,"INCLINATION":42.9988,"RA_OF_ASC_NODE":160.0045,"ARG_OF_PERICENTER":235.3783,"MEAN_ANOMALY":124.6868,"EPHEMERIS_TYPE":0,"CLASSIFICATION_TYPE":"U","NORAD_CAT_ID":67959,"ELEMENT_SET_NO":999,"REV_AT_EPOCH":424,"BSTAR":0.0025520815,"MEAN_MOTION_DOT":0.00585215,"MEAN_MOTION_DDOT":0},{"OBJECT_NAME":"STARLINK-36841","OBJECT_ID":"2026-037AE","EPOCH":"2026-03-15T22:26:39.737760","MEAN_MOTION":15.82179874,"ECCENTRICITY":0.00025366,"INCLINATION":42.9985,"RA_OF_ASC_NODE":160.0104,"ARG_OF_PERICENTER":26.2253,"MEAN_ANOMALY":333.8747,"EPHEMERIS_TYPE":0,"CLASSIFICATION_TYPE":"U","NORAD_CAT_ID":67960,"ELEMENT_SET_NO":999,"REV_AT_EPOCH":424,"BSTAR":0.0023061706,"MEAN_MOTION_DOT":0.00519298,"MEAN_MOTION_DDOT":0}]
