STARLINK-36908          
1 67945U 26037P   26075.57698883  .00193636  00000+0  89929-3 0  9990
2 67945  42.9982 156.2290 0001018 283.1919  76.8839 15.82073432  4342
STARLINK-36909          
1 67946U 26037Q   26075.57623331  .00093502  00000+0  44118-3 0  9999
2 67946  42.9980 156.2229 0001805 317.6666  42.4066 15.82045305  4348
STARLINK-36920          
1 67947U 26037R   26075.25982751  .00474350  00000+0  21242-2 0  9995
2 67947  42.9982 158.1513 0003452 338.1333  21.9390 15.82114717  4297
STARLINK-36873          
1 67948U 26037S   26075.25914306 -.00503362  00000+0 -25928-2 0  9990
2 67948  42.9977 158.1448 0002375 249.7909 110.2708 15.81483093  4298
STARLINK-36863          
1 67949U 26037T   26075.57399211  .00221074  00000+0  10232-2 0  9995
2 67949  42.9983 156.2045 0001483 305.0323  55.0409 15.82071332  4343
STARLINK-36887          
1 67950U 26037U   26075.58385512 -.00691113  00000+0 -58907-2 0  9995
2 67950  42.9994 156.2838 0002579 293.8186  66.2411 15.70645046  4348
STARLINK-36897          
1 67951U 26037V   26075.57249272  .00221409  00000+0  10245-2 0  9995
2 67951  42.9988 156.1923 0001501 263.5944  96.4757 15.82076089  4342
STARLINK-36381          
1 67952U 26037W   26075.57100050 -.00027192  00000+0 -12748-3 0  9992
2 67952  42.9982 156.1801 0001021 306.5215  53.5562 15.81938385  4341
STARLINK-36824          
1 67953U 26037X   26075.83335647 -.01954911  00000+0 -16963-1 0  9994
2 67953  42.9998 154.7104 0001653 278.0730  83.1574 15.71193412  4340
STARLINK-36869          
1 67954U 26037Y   26075.51422647 -.00675995  00000+0 -52415-2 0  9991
2 67954  42.9990 156.6173 0002276 264.1488  95.9121 15.72823525  4332
STARLINK-36872          
1 67955U 26037Z   26075.56874673  .00153331  00000+0  71630-3 0  9991
2 67955  42.9984 156.1603 0000977 245.7109 114.3661 15.82063634  4344
STARLINK-36918          
1 67956U 26037AA  26075.56799067  .00140757  00000+0  65764-3 0  9994
2 67956  42.9987 156.1542 0002266 256.0433 104.0187 15.82097144  4340
STARLINK-36829          
1 67957U 26037AB  26075.83335647 -.01927374  00000+0 -12871-1 0  9995
2 67957  42.9995 154.5714 0001416 279.8754 136.4506 15.77636126  4345
STARLINK-36799          
1 67958U 26037AC  26075.56724832  .00149787  00000+0  70019-3 0  9995
2 67958  42.9985 156.1484 0000967 247.1124 112.9646 15.82060360  4347
STARLINK-36834          
1 67959U 26037AD  26074.93437907  .00585215  00000+0  25521-2 0  9997
2 67959  42.9988 160.0045 0002347 235.3783 124.6868 15.82401295  4243
STARLINK-36841          
1 67960U 26037AE  26074.93518215  .00519298  00000+0  23062-2 0  9997
2 67960  42.9985 160.0104 0002536  26.2253 333.8747 15.82179874  4242
